[{"OBJECT_NAME":"STARLINK-34915","OBJECT_ID":"2025-175P","EPOCH":"2026-03-09T15:27:15.778368","MEAN_MOTION":15.0567095,"ECCENTRICITY":0.0002365,"INCLINATION":97.602,"RA_OF_ASC_NODE":302.6143,"ARG_OF_PERICENTER":82.3451,"MEAN_ANOMALY":277.8045,"EPHEMERIS_TYPE":0,"CLASSIFICATION_TYPE":"U","NORAD_CAT_ID":65187,"ELEMENT_SET_NO":999,"REV_AT_EPOCH":3263,"BSTAR":0.00024839,"MEAN_MOTION_DOT":3.527e-5,"MEAN_MOTION_DDOT":0},{"OBJECT_NAME":"SL-8 DEB","OBJECT_ID":"1965-020EN","EPOCH":"2026-03-09T21:30:01.358784","MEAN_MOTION":14.21304929,"ECCENTRICITY":0.03828379,"INCLINATION":56.171,"RA_OF_ASC_NODE":335.2447,"ARG_OF_PERICENTER":331.0415,"MEAN_ANOMALY":26.9803,"EPHEMERIS_TYPE":0,"CLASSIFICATION_TYPE":"U","NORAD_CAT_ID":3038,"ELEMENT_SET_NO":999,"REV_AT_EPOCH":21169,"BSTAR":0.0030592028,"MEAN_MOTION_DOT":0.00014042,"MEAN_MOTION_DDOT":0}]
